[{"OBJECT_NAME":"ONEWEB-0626","OBJECT_ID":"2023-004AD","EPOCH":"2026-03-09T21:37:43.681728","MEAN_MOTION":13.17651985,"ECCENTRICITY":0.00022197,"INCLINATION":87.9145,"RA_OF_ASC_NODE":25.5901,"ARG_OF_PERICENTER":80.7437,"MEAN_ANOMALY":279.3945,"EPHEMERIS_TYPE":0,"CLASSIFICATION_TYPE":"U","NORAD_CAT_ID":55167,"ELEMENT_SET_NO":999,"REV_AT_EPOCH":15450,"BSTAR":-0.0028298824,"MEAN_MOTION_DOT":-1.086e-5,"MEAN_MOTION_DDOT":0},{"OBJECT_NAME":"SL-14 DEB","OBJECT_ID":"1991-056BQ","EPOCH":"2026-03-09T08:33:35.379936","MEAN_MOTION":13.25026932,"ECCENTRICITY":0.00362623,"INCLINATION":82.5917,"RA_OF_ASC_NODE":200.3207,"ARG_OF_PERICENTER":267.7716,"MEAN_ANOMALY":91.9259,"EPHEMERIS_TYPE":0,"CLASSIFICATION_TYPE":"U","NORAD_CAT_ID":45326,"ELEMENT_SET_NO":999,"REV_AT_EPOCH":29297,"BSTAR":0.0017802165,"MEAN_MOTION_DOT":7.86e-6,"MEAN_MOTION_DDOT":0}]
